[{"OBJECT_NAME":"STARLINK-30785","OBJECT_ID":"2023-167S","EPOCH":"2026-03-11T10:54:23.597856","MEAN_MOTION":15.26745176,"ECCENTRICITY":0.00012437,"INCLINATION":43,"RA_OF_ASC_NODE":133.5453,"ARG_OF_PERICENTER":261.4743,"MEAN_ANOMALY":98.5967,"EPHEMERIS_TYPE":0,"CLASSIFICATION_TYPE":"U","NORAD_CAT_ID":58191,"ELEMENT_SET_NO":999,"REV_AT_EPOCH":13125,"BSTAR":6.3419287e-5,"MEAN_MOTION_DOT":1.442e-5,"MEAN_MOTION_DDOT":0},{"OBJECT_NAME":"STARLINK-30807","OBJECT_ID":"2023-167T","EPOCH":"2026-03-12T05:35:14.736480","MEAN_MOTION":15.27610435,"ECCENTRICITY":0.00041653,"INCLINATION":42.9996,"RA_OF_ASC_NODE":129.0684,"ARG_OF_PERICENTER":302.1262,"MEAN_ANOMALY":57.9185,"EPHEMERIS_TYPE":0,"CLASSIFICATION_TYPE":"U","NORAD_CAT_ID":58192,"ELEMENT_SET_NO":999,"REV_AT_EPOCH":13137,"BSTAR":0.00094156103,"MEAN_MOTION_DOT":0.00025767,"MEAN_MOTION_DDOT":0},{"OBJECT_NAME":"STARLINK-30822","OBJECT_ID":"2023-167U","EPOCH":"2026-03-11T14:10:46.701120","MEAN_MOTION":15.26746048,"ECCENTRICITY":0.0001554,"INCLINATION":43.0044,"RA_OF_ASC_NODE":132.8486,"ARG_OF_PERICENTER":269.9999,"MEAN_ANOMALY":90.0674,"EPHEMERIS_TYPE":0,"CLASSIFICATION_TYPE":"U","NORAD_CAT_ID":58193,"ELEMENT_SET_NO":999,"REV_AT_EPOCH":13127,"BSTAR":3.3506292e-5,"MEAN_MOTION_DOT":6.39e-6,"MEAN_MOTION_DDOT":0},{"OBJECT_NAME":"STARLINK-30830","OBJECT_ID":"2023-167V","EPOCH":"2026-03-12T01:45:53.157024","MEAN_MOTION":15.26759241,"ECCENTRICITY":0.00016271,"INCLINATION":43.0022,"RA_OF_ASC_NODE":129.5751,"ARG_OF_PERICENTER":286.0677,"MEAN_ANOMALY":73.9995,"EPHEMERIS_TYPE":0,"CLASSIFICATION_TYPE":"U","NORAD_CAT_ID":58194,"ELEMENT_SET_NO":999,"REV_AT_EPOCH":13135,"BSTAR":-6.1106717e-5,"MEAN_MOTION_DOT":-1.9e-5,"MEAN_MOTION_DDOT":0},{"OBJECT_NAME":"STARLINK-30827","OBJECT_ID":"2023-167W","EPOCH":"2026-03-11T13:07:25.793184","MEAN_MOTION":15.27576292,"ECCENTRICITY":0.00019597,"INCLINATION":43.0053,"RA_OF_ASC_NODE":132.5188,"ARG_OF_PERICENTER":267.3427,"MEAN_ANOMALY":92.72,"EPHEMERIS_TYPE":0,"CLASSIFICATION_TYPE":"U","NORAD_CAT_ID":58195,"ELEMENT_SET_NO":999,"REV_AT_EPOCH":13127,"BSTAR":-3.3145877e-5,"MEAN_MOTION_DOT":-1.174e-5,"MEAN_MOTION_DDOT":0},{"OBJECT_NAME":"STARLINK-30798","OBJECT_ID":"2023-167X","EPOCH":"2026-03-12T05:51:52.310880","MEAN_MOTION":15.2761944,"ECCENTRICITY":0.00020397,"INCLINATION":42.9994,"RA_OF_ASC_NODE":129.1529,"ARG_OF_PERICENTER":269.1338,"MEAN_ANOMALY":90.928,"EPHEMERIS_TYPE":0,"CLASSIFICATION_TYPE":"U","NORAD_CAT_ID":58196,"ELEMENT_SET_NO":999,"REV_AT_EPOCH":13137,"BSTAR":-0.00082916022,"MEAN_MOTION_DOT":-0.00023037,"MEAN_MOTION_DDOT":0},{"OBJECT_NAME":"STARLINK-30762","OBJECT_ID":"2023-167Y","EPOCH":"2026-03-11T04:56:06.404352","MEAN_MOTION":15.26753546,"ECCENTRICITY":0.0002585,"INCLINATION":43.0003,"RA_OF_ASC_NODE":135.111,"ARG_OF_PERICENTER":293.926,"MEAN_ANOMALY":66.132,"EPHEMERIS_TYPE":0,"CLASSIFICATION_TYPE":"U","NORAD_CAT_ID":58197,"ELEMENT_SET_NO":999,"REV_AT_EPOCH":13121,"BSTAR":0.00020713654,"MEAN_MOTION_DOT":5.302e-5,"MEAN_MOTION_DDOT":0},{"OBJECT_NAME":"STARLINK-30800","OBJECT_ID":"2023-170A","EPOCH":"2026-03-11T09:03:15.940512","MEAN_MOTION":15.26750371,"ECCENTRICITY":0.00016537,"INCLINATION":43.003,"RA_OF_ASC_NODE":185.0267,"ARG_OF_PERICENTER":271.7852,"MEAN_ANOMALY":88.281,"EPHEMERIS_TYPE":0,"CLASSIFICATION_TYPE":"U","NORAD_CAT_ID":58206,"ELEMENT_SET_NO":999,"REV_AT_EPOCH":13055,"BSTAR":8.4652561e-5,"MEAN_MOTION_DOT":2.012e-5,"MEAN_MOTION_DDOT":0},{"OBJECT_NAME":"STARLINK-30845","OBJECT_ID":"2023-170B","EPOCH":"2026-03-11T08:33:32.142528","MEAN_MOTION":15.0317999,"ECCENTRICITY":0.00014138,"INCLINATION":43.0029,"RA_OF_ASC_NODE":186.5827,"ARG_OF_PERICENTER":279.1622,"MEAN_ANOMALY":80.9061,"EPHEMERIS_TYPE":0,"CLASSIFICATION_TYPE":"U","NORAD_CAT_ID":58207,"ELEMENT_SET_NO":999,"REV_AT_EPOCH":13053,"BSTAR":0.0008174909,"MEAN_MOTION_DOT":0.00011046,"MEAN_MOTION_DDOT":0},{"OBJECT_NAME":"STARLINK-30841","OBJECT_ID":"2023-170C","EPOCH":"2026-03-12T06:39:27.176832","MEAN_MOTION":15.26739336,"ECCENTRICITY":0.00020747,"INCLINATION":43.0015,"RA_OF_ASC_NODE":179.7295,"ARG_OF_PERICENTER":265.9872,"MEAN_ANOMALY":94.0742,"EPHEMERIS_TYPE":0,"CLASSIFICATION_TYPE":"U","NORAD_CAT_ID":58208,"ELEMENT_SET_NO":999,"REV_AT_EPOCH":13069,"BSTAR":-4.3124068e-5,"MEAN_MOTION_DOT":-1.417e-5,"MEAN_MOTION_DDOT":0},{"OBJECT_NAME":"STARLINK-30839","OBJECT_ID":"2023-170D","EPOCH":"2026-03-11T08:52:31.210752","MEAN_MOTION":15.26750928,"ECCENTRICITY":0.00017264,"INCLINATION":43.0041,"RA_OF_ASC_NODE":184.1201,"ARG_OF_PERICENTER":284.0603,"MEAN_ANOMALY":76.0056,"EPHEMERIS_TYPE":0,"CLASSIFICATION_TYPE":"U","NORAD_CAT_ID":58209,"ELEMENT_SET_NO":999,"REV_AT_EPOCH":13056,"BSTAR":6.7466865e-5,"MEAN_MOTION_DOT":1.551e-5,"MEAN_MOTION_DDOT":0},{"OBJECT_NAME":"STARLINK-30846","OBJECT_ID":"2023-170E","EPOCH":"2026-03-12T07:16:00.167808","MEAN_MOTION":15.26740121,"ECCENTRICITY":0.00026019,"INCLINATION":43.0054,"RA_OF_ASC_NODE":179.9379,"ARG_OF_PERICENTER":301.544,"MEAN_ANOMALY":58.5157,"EPHEMERIS_TYPE":0,"CLASSIFICATION_TYPE":"U","NORAD_CAT_ID":58210,"ELEMENT_SET_NO":999,"REV_AT_EPOCH":13069,"BSTAR":8.1586987e-5,"MEAN_MOTION_DOT":1.929e-5,"MEAN_MOTION_DDOT":0},{"OBJECT_NAME":"STARLINK-30838","OBJECT_ID":"2023-170F","EPOCH":"2026-03-12T06:00:00.999648","MEAN_MOTION":15.27522869,"ECCENTRICITY":0.00013998,"INCLINATION":42.9988,"RA_OF_ASC_NODE":179.5884,"ARG_OF_PERICENTER":259.6988,"MEAN_ANOMALY":82.0728,"EPHEMERIS_TYPE":0,"CLASSIFICATION_TYPE":"U","NORAD_CAT_ID":58211,"ELEMENT_SET_NO":999,"REV_AT_EPOCH":568,"BSTAR":0.0024972815,"MEAN_MOTION_DOT":0.00068982,"MEAN_MOTION_DDOT":0},{"OBJECT_NAME":"STARLINK-30837","OBJECT_ID":"2023-170G","EPOCH":"2026-03-11T09:01:20.627616","MEAN_MOTION":15.26748328,"ECCENTRICITY":0.00010075,"INCLINATION":43.0008,"RA_OF_ASC_NODE":184.9983,"ARG_OF_PERICENTER":254.1633,"MEAN_ANOMALY":105.9107,"EPHEMERIS_TYPE":0,"CLASSIFICATION_TYPE":"U","NORAD_CAT_ID":58212,"ELEMENT_SET_NO":999,"REV_AT_EPOCH":13055,"BSTAR":3.71628e-7,"MEAN_MOTION_DOT":-2.5e-6,"MEAN_MOTION_DDOT":0},{"OBJECT_NAME":"STARLINK-30813","OBJECT_ID":"2023-170H","EPOCH":"2026-03-12T07:23:44.981664","MEAN_MOTION":15.26748913,"ECCENTRICITY":0.00024552,"INCLINATION":43.0055,"RA_OF_ASC_NODE":179.1219,"ARG_OF_PERICENTER":263.8596,"MEAN_ANOMALY":96.1976,"EPHEMERIS_TYPE":0,"CLASSIFICATION_TYPE":"U","NORAD_CAT_ID":58213,"ELEMENT_SET_NO":999,"REV_AT_EPOCH":13070,"BSTAR":6.5753716e-5,"MEAN_MOTION_DOT":1.504e-5,"MEAN_MOTION_DDOT":0},{"OBJECT_NAME":"STARLINK-30805","OBJECT_ID":"2023-170J","EPOCH":"2026-03-12T07:27:44.547264","MEAN_MOTION":15.2726743,"ECCENTRICITY":0.00015773,"INCLINATION":43.0018,"RA_OF_ASC_NODE":179.1409,"ARG_OF_PERICENTER":264.5433,"MEAN_ANOMALY":95.5239,"EPHEMERIS_TYPE":0,"CLASSIFICATION_TYPE":"U","NORAD_CAT_ID":58214,"ELEMENT_SET_NO":999,"REV_AT_EPOCH":13070,"BSTAR":0.002162999,"MEAN_MOTION_DOT":0.0005917,"MEAN_MOTION_DDOT":0}]
