STARLINK-30785          
1 58191U 23167S   26070.45443979  .00001442  00000+0  63419-4 0  9990
2 58191  43.0000 133.5453 0001243 261.4743  98.5967 15.26745176131254
STARLINK-30807          
1 58192U 23167T   26071.23280945  .00025767  00000+0  94156-3 0  9997
2 58192  42.9996 129.0684 0004165 302.1262  57.9185 15.27610435131372
STARLINK-30822          
1 58193U 23167U   26070.59081830  .00000639  00000+0  33506-4 0  9992
2 58193  43.0044 132.8486 0001554 269.9999  90.0674 15.26746048131276
STARLINK-30830          
1 58194U 23167V   26071.07353191 -.00001900  00000+0 -61107-4 0  9991
2 58194  43.0022 129.5751 0001627 286.0677  73.9995 15.26759241131359
STARLINK-30827          
1 58195U 23167W   26070.54682631 -.00001174  00000+0 -33146-4 0  9992
2 58195  43.0053 132.5188 0001959 267.3427  92.7200 15.27576292131278
STARLINK-30798          
1 58196U 23167X   26071.24435545 -.00023037  00000+0 -82916-3 0  9991
2 58196  42.9994 129.1529 0002039 269.1338  90.9280 15.27619440131375
STARLINK-30762          
1 58197U 23167Y   26070.20562968  .00005302  00000+0  20714-3 0  9998
2 58197  43.0003 135.1110 0002585 293.9260  66.1320 15.26753546131215
STARLINK-30800          
1 58206U 23170A   26070.37726783  .00002012  00000+0  84653-4 0  9996
2 58206  43.0030 185.0267 0001653 271.7852  88.2810 15.26750371130557
STARLINK-30845          
1 58207U 23170B   26070.35662202  .00011046  00000+0  81749-3 0  9999
2 58207  43.0029 186.5827 0001413 279.1622  80.9061 15.03179990130537
STARLINK-30841          
1 58208U 23170C   26071.27739788 -.00001417  00000+0 -43124-4 0  9995
2 58208  43.0015 179.7295 0002074 265.9872  94.0742 15.26739336130690
STARLINK-30839          
1 58209U 23170D   26070.36980568  .00001551  00000+0  67467-4 0  9992
2 58209  43.0041 184.1201 0001726 284.0603  76.0056 15.26750928130568
STARLINK-30846          
1 58210U 23170E   26071.30277972  .00001929  00000+0  81587-4 0  9995
2 58210  43.0054 179.9379 0002601 301.5440  58.5157 15.26740121130694
STARLINK-30838          
1 58211U 23170F   26071.25001157  .00068982  00000+0  24973-2 0  9996
2 58211  42.9988 179.5884 0001399 259.6988  82.0728 15.27522869  5683
STARLINK-30837          
1 58212U 23170G   26070.37593319 -.00000250  00000+0  37163-6 0  9999
2 58212  43.0008 184.9983 0001007 254.1633 105.9107 15.26748328130552
STARLINK-30813          
1 58213U 23170H   26071.30815951  .00001504  00000+0  65754-4 0  9990
2 58213  43.0055 179.1219 0002455 263.8596  96.1976 15.26748913130708
STARLINK-30805          
1 58214U 23170J   26071.31093226  .00059170  00000+0  21630-2 0  9990
2 58214  43.0018 179.1409 0001577 264.5433  95.5239 15.27267430130707
